ENDUROSAT ONE           
1 43551U 98067NZ  20279.82939679  .00614532  20435-3  68701-3 0  9994
2 43551  51.6240  58.8531 0008078 309.8298  50.2004 16.08747362127937
EQUISAT                 
1 43552U 98067PA  20280.15142342  .00072517  00000-0  34349-3 0  9991
2 43552  51.6296  77.1589 0002982 200.0986 159.9899 15.82311254127689
AEROCUBE 12A            
1 43556U 18046C   20280.08754275  .00000944  00000-0  44181-4 0  9991
2 43556  51.6407 293.8553 0008032 336.9077  23.1541 15.30136227124318
AEROCUBE 12B            
1 43557U 18046D   20279.51682323  .00001599  00000-0  66912-4 0  9995
2 43557  51.6421 297.5292 0008041 333.2274  26.8291 15.29808725124167
UITMSAT-1               
1 43589U 98067PD  20279.86904060  .00139461  00000-0  45478-3 0  9997
2 43589  51.6306  72.7854 0003557 255.0265 105.0347 15.89741868123452
MAYA-1                  
1 43590U 98067PE  20279.16932801  .00111138  00000-0  36680-3 0  9992
2 43590  51.6258  76.3010 0003282 250.4818 109.5833 15.89596869123270
BHUTAN-1                
1 43591U 98067PF  20280.13149891  .00135677  17836-4  44640-3 0  9999
2 43591  51.6320  70.8761 0003647 259.4515 100.6080 15.90259001123431
SIRIUSSAT-1             
1 43595U 98067PG  20280.32001334  .00052885  00000-0  23108-3 0  9999
2 43595  51.6281  78.0486 0004669 342.5165  17.8025 15.84144434122539
SIRIUSSAT-2             
1 43596U 98067PH  20280.01071505  .00054302  00000-0  23860-3 0  9994
2 43596  51.6269  80.5778 0000979 221.7697 138.4849 15.84027912122474
SURFSAT                 
1 43614U 18070B   20279.52287339  .00002968  00000-0  75106-4 0  9991
2 43614  93.0288 200.1518 0011982 272.5973  87.3910 15.39758622115411
CP7 (DAVE)              
1 43615U 18070C   20279.82563790  .00003044  00000-0  77470-4 0  9995
2 43615  93.0291 200.2608 0012153 270.6402  89.3460 15.39584394115453
ELFIN-B                 
1 43616U 18070D   20279.82645932  .00004118  00000-0  99320-4 0  9996
2 43616  93.0250 200.2439 0012355 271.8386  88.1454 15.41192334115518
ELFIN-A                 
1 43617U 18070E   20279.84474986  .00005013  00000-0  11989-3 0  9997
2 43617  93.0302 200.8574 0011730 267.2953  92.6959 15.41442352115527
CUBEBEL-1 (BSUSAT-1)    
1 43666U 18083E   20279.75595990  .00001129  00000-0  58019-4 0  9994
2 43666  97.4819 305.1049 0014395 343.0809 106.4666 15.18462006107354
CICERO 10               
1 43690U 18088A   20280.20285952  .00001260  00000-0  55961-4 0  9991
2 43690  85.0417   5.3411 0012596 262.5300  97.4510 15.20407875105566
IRVINE01                
1 43693U 18088D   20279.53994082  .00002500  00000-0  10330-3 0  9997
2 43693  85.0389   4.1190 0015644 241.4958 118.4710 15.23353422105602
PROXIMA I               
1 43694U 18088E   20280.19941898  .00001241  00000-0  52188-4 0  9998
2 43694  85.0360   3.5966 0017276 231.7268 128.2420 15.22157177105688
PROXIMA II              
1 43696U 18088G   20280.19753519  .00001263  00000-0  53112-4 0  9993
2 43696  85.0361   3.6027 0017312 231.6854 128.2832 15.22158051105680
FACSAT-1                
1 43721U 18096C   20280.14351456  .00001932  00000-0  74213-4 0  9998
2 43721  97.4139 353.0881 0019124  91.3739 356.6161 15.27521565103280
CENTAURI-2              
1 43722U 18096D   20280.17768890  .00002276  00000-0  85301-4 0  9998
2 43722  97.4134 353.5112 0019058  91.3990 268.9433 15.28148656103300
INNOSAT-2               
1 43738U 18096V   20280.15480322  .00003740  00000-0  12679-3 0  9998
2 43738  97.4172 355.9358 0024726  96.0967 326.3708 15.30891848103463
SIRION PATHFINDER-2     
1 43759U 18099B   20279.92558868 -.00000411  00000-0 -32018-4 0  9992
2 43759  97.6967 349.6501 0014338 168.5812 191.5736 14.95320125100445
CORVUS-BC 4             
1 43767U 18099K   20280.17553655  .00000625  00000-0  62688-4 0  9990
2 43767  97.6945 349.1848 0011722 169.7883 190.3576 14.94772653100449
MOVE-II                 
1 43780U 18099Y   20280.19539417  .00000557  00000-0  55405-4 0  9990
2 43780  97.6969 349.8843 0013683 178.9619 181.1632 14.95502052100467
SPACEBEE-7              
1 43816U 18099BL  20280.18050102  .00000021  00000-0  70445-5 0  9996
2 43816  97.6985 350.3279 0013787 163.3760 196.7916 14.95780600100043
SPACEBEE-5              
1 43817U 18099BM  20280.15159342  .00001656  00000-0  15062-3 0  9997
2 43817  97.7047 350.9362 0013918 162.6289 197.5411 14.96508246100063
SPACEBEE-6              
1 43818U 18099BN  20279.92801412  .00000495  00000-0  49242-4 0  9991
2 43818  97.7000 350.2769 0013869 164.3895 195.7756 14.96001806100167
SHIELDS 1               
1 43850U 18104B   20279.83062230  .00000520  00000-0  21248-4 0  9996
2 43850  85.0254 102.3821 0016031  32.3528 327.8693 15.21476696100250
STF-1                   
1 43852U 18104D   20279.58428808  .00001208  00000-0  51782-4 0  9997
2 43852  85.0294 103.1533 0016187  46.3288 313.9292 15.21489220100196
ZACUBE-2                
1 43907U 18111AH  20280.20033556  .00000656  00000-0  29179-4 0  9990
2 43907  97.2530 176.5556 0023001 110.2745  40.7701 15.24700999 98880
LUME 1                  
1 43908U 18111AJ  20280.19235084  .00001337  00000-0  55594-4 0  9996
2 43908  97.2526 176.8021 0022759 109.8538 250.5156 15.25250350 98909
AOBA VELOX-IV           
1 43940U 19003J   20280.12509122  .00002082  00000-0  84652-4 0  9998
2 43940  97.2160 327.5595 0023407 187.4153 172.6742 15.25390019 95512
CATSAT-2                
1 44029U 98067PV  20279.70725799  .00020783  00000-0  17823-3 0  9999
2 44029  51.6366 115.7545 0003749 158.9404 201.1748 15.69358550 95813
DELPHINI                
1 44030U 98067PW  20279.95659536  .00037677  00000-0  29769-3 0  9995
2 44030  51.6311 111.9901 0003748 160.5691 199.5450 15.70985205 95854
UNITE                   
1 44031U 98067PX  20280.09990901  .00013884  00000-0  15254-3 0  9995
2 44031  51.6359 123.5950 0003366 137.3088 222.8169 15.63496454 95715
CATSAT-1                
1 44033U 98067PZ  20279.70713851  .00021402  00000-0  18330-3 0  9993
2 44033  51.6369 115.7628 0003820 156.9685 203.1484 15.69368442 95722
RAAVANA-1               
1 44329U 98067QE  20279.32711955  .00011152  00000-0  14020-3 0  9995
2 44329  51.6378 142.5150 0005449  64.8871 295.2687 15.60212599 74143
UGUISU                  
1 44330U 98067QF  20280.05110070  .00013486  00000-0  16877-3 0  9994
2 44330  51.6353 139.0690 0005411  66.6881 293.4681 15.60120601 74234
NEPALISAT-1             
1 44331U 98067QG  20280.02299340  .00014370  00000-0  17856-3 0  9991
2 44331  51.6351 138.8837 0005464  69.9980 290.1601 15.60244316 74244
SPOOQY-1                
1 44332U 98067QH  20279.77839746  .00011508  00000-0  14518-3 0  9994
2 44332  51.6363 140.2579 0004709  73.2812 286.8697 15.60085460 74162
SPACEBEE-9              
1 44370U 19037F   20280.15960570  .00012485  00000-0  26373-3 0  9997
2 44370  45.0056 216.0533 0012297 122.3340 237.8742 15.45194011 71716
SPACEBEE-8              
1 44371U 19037G   20279.87467261  .00027343  00000-0  45777-3 0  9992
2 44371  45.0055 207.1865 0011412 132.1105 228.0759 15.51364034 71790
IOD-1 GEMS              
1 44385U 98067QK  20279.80722546  .00026729  00000-0  28013-3 0  9991
2 44385  51.6373 136.0175 0000989  47.6045 312.5034 15.64198537 71742
MOVE-IIB                
1 44398U 19038N   20280.17319304  .00001584  00000-0  93860-4 0  9997
2 44398  97.5472 240.0741 0026406 104.0117 256.4052 15.12563717 69315
SONATE                  
1 44400U 19038Q   20279.77546577  .00000493  00000-0  32238-4 0  9999
2 44400  97.5517 239.6853 0026600 104.8540 255.5639 15.12058572 69242
LUCKY-7                 
1 44406U 19038W   20279.70499090  .00000773  00000-0  48033-4 0  9996
2 44406  97.5523 239.7592 0026193 105.0125 255.4007 15.12346378 69236
BEESAT 9                
1 44412U 19038AC  20280.15957619  .00001017  00000-0  61877-4 0  9993
2 44412  97.5513 240.1925 0024183 108.7219 251.6638 15.12469814 69003
JAISAT-1                
1 44419U 19038F   20280.14449592  .00000958  00000-0  57775-4 0  9990
2 44419  97.5516 240.5260 0023045 107.7228 252.6520 15.12954055 69337
SWIATOWID               
1 44426U 98067QL  20279.74454589  .00033485  00000-0  32712-3 0  9997
2 44426  51.6383 134.7126 0001456  65.1667 339.5053 15.65849301 71760
KRAKSAT                 
1 44427U 98067QM  20279.82623091  .00010535  00000-0  14626-3 0  9998
2 44427  51.6410 145.0211 0002722  28.0645  29.6537 15.57629895 71672
VCC A                   
1 44428U 98067QN  20279.04735823  .00012575  00000-0  16189-3 0  9992
2 44428  51.6379 145.9457 0002151  51.1920 308.9264 15.59449705 71590
ENTRYSAT                
1 44429U 98067QP  20280.02068987  .00016849  00000-0  20244-3 0  9998
2 44429  51.6362 138.9022 0001576  52.1797 307.9339 15.60994875 71773
VCC C                   
1 44430U 98067QQ  20279.31569924  .00017298  00000-0  19306-3 0  9993
2 44430  51.6360 140.2001 0001537  84.5579 275.5590 15.62891944 70526
VCC B                   
1 44431U 98067QR  20278.91508707  .00012924  00000-0  16572-3 0  9994
2 44431  51.6367 146.5337 0002273  49.0246 311.0943 15.59526745 71518
ATL-1                   
1 44830U 19084G   20280.17520224  .01684856  21473-5  11537-2 0  9995
2 44830  96.9392 151.7809 0008808 181.6115 178.5146 16.16533027 48027
SMOG-P                  
1 44832U 19084J   20272.06303716  .11453400  23230-5  63587-3 0  9997
2 44832  96.9437 144.0914 0010614 231.8961 128.1384 16.41416157 46773
DUCHIFAT-3              
1 44854U 19089C   20280.06141557  .00000484  00000-0  45423-4 0  9991
2 44854  36.9665 164.6479 0009284 244.3564 115.6223 14.99146659 44901
EYESAT-NANO             
1 44877U 19092E   20279.56756249  .00001057  00000-0  56745-4 0  9999
2 44877  97.4576 101.0772 0013643   2.9908 357.1404 15.17028403 44286
ORBITAL FACTORY 2 (OF-2)
1 45113U 19071C   20279.81128898  .00002071  00000-0  73810-4 0  9990
2 45113  51.6428 190.2972 0013574  94.9326 265.3206 15.33765388 38065
